{"epoch":1784710044,"count":18256,"objects":[{"id":"39418","name":"SKYSAT 1","type":"PAYLOAD","l1":"1 39418U 13066C   26202.11753306  .00001920  00000-0  11144-3 0  9995","l2":"2 39418  97.3797 250.4333 0021024 192.3397 167.7323 15.13136302693611"},{"id":"40072","name":"SKYSAT 2","type":"PAYLOAD","l1":"1 40072U 14037D   26202.62025596  .00000881  00000-0  10248-3 0  9990","l2":"2 40072  98.3858 163.5543 0006020 153.0763 207.0765 14.88102443651088"},{"id":"41601","name":"SKYSAT C1","type":"PAYLOAD","l1":"1 41601U 16040C   26202.53577281  .00007800  00000-0  21885-3 0  9995","l2":"2 41601  96.9555 232.4028 0000783 192.6003 167.5223 15.36817511563146"},{"id":"41771","name":"SKYSAT C4","type":"PAYLOAD","l1":"1 41771U 16058B   26202.50331122  .00015758  00000-0  28674-3 0  9995","l2":"2 41771  96.9176 222.8604 0003520 109.3664 250.7969 15.49577048550786"},{"id":"41772","name":"SKYSAT C5","type":"PAYLOAD","l1":"1 41772U 16058C   26202.53980410  .00006161  00000-0  19088-3 0  9996","l2":"2 41772  97.0452 241.6323 0003240 145.5596 214.5858 15.33775391549011"},{"id":"41773","name":"SKYSAT C2","type":"PAYLOAD","l1":"1 41773U 16058D   26202.31855793  .00009217  00000-0  21259-3 0  9996","l2":"2 41773  97.0165 223.1434 0000717 302.7636  57.3543 15.42770110550312"},{"id":"41774","name":"SKYSAT C3","type":"PAYLOAD","l1":"1 41774U 16058E   26202.03037627  .00017145  00000-0  26757-3 0  9991","l2":"2 41774  96.9000 231.6037 0002779 125.8983 234.2530 15.53879483551364"},{"id":"42987","name":"SKYSAT C11","type":"PAYLOAD","l1":"1 42987U 17068A   26202.14524495  .00023423  00000-0  29603-3 0  9995","l2":"2 42987  97.4387 352.5062 0001488 151.5887 208.5451 15.59545665488533"},{"id":"42988","name":"SKYSAT C10","type":"PAYLOAD","l1":"1 42988U 17068B   26202.32245316  .00008215  00000-0  24282-3 0  9998","l2":"2 42988  97.4542 339.5238 0001545 110.0496 250.0914 15.35195077487590"},{"id":"42989","name":"SKYSAT C9","type":"PAYLOAD","l1":"1 42989U 17068C   26202.63293641  .00011914  00000-0  27822-3 0  9990","l2":"2 42989  97.4464 341.1075 0008086  23.0912 337.0697 15.42318183488065"},{"id":"42990","name":"SKYSAT C8","type":"PAYLOAD","l1":"1 42990U 17068D   26202.37145753  .00009104  00000-0  24920-3 0  9997","l2":"2 42990  97.4560 339.5052 0001312 106.9066 253.2323 15.37570842487561"},{"id":"42991","name":"SKYSAT C7","type":"PAYLOAD","l1":"1 42991U 17068E   26202.62646566  .00009328  00000-0  25555-3 0  9997","l2":"2 42991  97.4571 340.7560 0005107 358.4600   1.6628 15.37524312487661"},{"id":"42992","name":"SKYSAT C6","type":"PAYLOAD","l1":"1 42992U 17068F   26202.32395062  .00006871  00000-0  20972-3 0  9995","l2":"2 42992  97.4610 340.2748 0004910  73.5250 286.6532 15.34235666487551"},{"id":"43797","name":"SKYSAT C12","type":"PAYLOAD","l1":"1 43797U 18099AR  26202.51674155  .00016555  00000-0  29736-3 0  9995","l2":"2 43797  96.9258 224.3956 0004809  56.3795 303.7916 15.49931463427173"}]}