{"fetched_at":"2026-07-22T07:09:23.748Z","source":"https://celestrak.org/NORAD/elements/gp.php?GROUP=planet&FORMAT=JSON","constellation":"skysat","records":[{"OBJECT_NAME":"SKYSAT-A","OBJECT_ID":"2013-066C","EPOCH":"2026-07-21T02:49:14.856384","CLASSIFICATION_TYPE":"U","MEAN_MOTION":15.13136302,"ECCENTRICITY":0.00210244,"INCLINATION":97.3797,"RA_OF_ASC_NODE":250.4333,"ARG_OF_PERICENTER":192.3397,"MEAN_ANOMALY":167.7323,"EPHEMERIS_TYPE":0,"NORAD_CAT_ID":39418,"ELEMENT_SET_NO":999,"REV_AT_EPOCH":69361,"BSTAR":0.00011144325,"MEAN_MOTION_DOT":0.0000192,"MEAN_MOTION_DDOT":0},{"OBJECT_NAME":"SKYSAT-B","OBJECT_ID":"2014-037D","EPOCH":"2026-07-21T14:53:10.114944","CLASSIFICATION_TYPE":"U","MEAN_MOTION":14.88102443,"ECCENTRICITY":0.00060203,"INCLINATION":98.3858,"RA_OF_ASC_NODE":163.5543,"ARG_OF_PERICENTER":153.0763,"MEAN_ANOMALY":207.0765,"EPHEMERIS_TYPE":0,"NORAD_CAT_ID":40072,"ELEMENT_SET_NO":999,"REV_AT_EPOCH":65108,"BSTAR":0.00010248307,"MEAN_MOTION_DOT":0.00000881,"MEAN_MOTION_DDOT":0},{"OBJECT_NAME":"SKYSAT-C1","OBJECT_ID":"2016-040C","EPOCH":"2026-07-21T12:51:30.770784","CLASSIFICATION_TYPE":"U","MEAN_MOTION":15.36817511,"ECCENTRICITY":0.00007835,"INCLINATION":96.9555,"RA_OF_ASC_NODE":232.4028,"ARG_OF_PERICENTER":192.6003,"MEAN_ANOMALY":167.5223,"EPHEMERIS_TYPE":0,"NORAD_CAT_ID":41601,"ELEMENT_SET_NO":999,"REV_AT_EPOCH":56314,"BSTAR":0.00021885032,"MEAN_MOTION_DOT":0.000078,"MEAN_MOTION_DDOT":0},{"OBJECT_NAME":"SKYSAT-C4","OBJECT_ID":"2016-058B","EPOCH":"2026-07-21T12:04:46.089408","CLASSIFICATION_TYPE":"U","MEAN_MOTION":15.49577048,"ECCENTRICITY":0.000352,"INCLINATION":96.9176,"RA_OF_ASC_NODE":222.8604,"ARG_OF_PERICENTER":109.3664,"MEAN_ANOMALY":250.7969,"EPHEMERIS_TYPE":0,"NORAD_CAT_ID":41771,"ELEMENT_SET_NO":999,"REV_AT_EPOCH":55078,"BSTAR":0.00028673506,"MEAN_MOTION_DOT":0.00015758,"MEAN_MOTION_DDOT":0},{"OBJECT_NAME":"SKYSAT-C5","OBJECT_ID":"2016-058C","EPOCH":"2026-07-21T12:57:19.074240","CLASSIFICATION_TYPE":"U","MEAN_MOTION":15.33775391,"ECCENTRICITY":0.00032403,"INCLINATION":97.0452,"RA_OF_ASC_NODE":241.6323,"ARG_OF_PERICENTER":145.5596,"MEAN_ANOMALY":214.5858,"EPHEMERIS_TYPE":0,"NORAD_CAT_ID":41772,"ELEMENT_SET_NO":999,"REV_AT_EPOCH":54901,"BSTAR":0.00019088358,"MEAN_MOTION_DOT":0.00006161,"MEAN_MOTION_DDOT":0},{"OBJECT_NAME":"SKYSAT-C2","OBJECT_ID":"2016-058D","EPOCH":"2026-07-21T07:38:43.405152","CLASSIFICATION_TYPE":"U","MEAN_MOTION":15.4277011,"ECCENTRICITY":0.00007171,"INCLINATION":97.0165,"RA_OF_ASC_NODE":223.1434,"ARG_OF_PERICENTER":302.7636,"MEAN_ANOMALY":57.3543,"EPHEMERIS_TYPE":0,"NORAD_CAT_ID":41773,"ELEMENT_SET_NO":999,"REV_AT_EPOCH":55031,"BSTAR":0.00021259391,"MEAN_MOTION_DOT":0.00009217,"MEAN_MOTION_DDOT":0},{"OBJECT_NAME":"SKYSAT-C3","OBJECT_ID":"2016-058E","EPOCH":"2026-07-21T00:43:44.509728","CLASSIFICATION_TYPE":"U","MEAN_MOTION":15.53879483,"ECCENTRICITY":0.00027793,"INCLINATION":96.9,"RA_OF_ASC_NODE":231.6037,"ARG_OF_PERICENTER":125.8983,"MEAN_ANOMALY":234.253,"EPHEMERIS_TYPE":0,"NORAD_CAT_ID":41774,"ELEMENT_SET_NO":999,"REV_AT_EPOCH":55136,"BSTAR":0.00026757403,"MEAN_MOTION_DOT":0.00017145,"MEAN_MOTION_DDOT":0},{"OBJECT_NAME":"SKYSAT-C11","OBJECT_ID":"2017-068A","EPOCH":"2026-07-21T03:29:09.163680","CLASSIFICATION_TYPE":"U","MEAN_MOTION":15.59545665,"ECCENTRICITY":0.00014875,"INCLINATION":97.4387,"RA_OF_ASC_NODE":352.5062,"ARG_OF_PERICENTER":151.5887,"MEAN_ANOMALY":208.5451,"EPHEMERIS_TYPE":0,"NORAD_CAT_ID":42987,"ELEMENT_SET_NO":999,"REV_AT_EPOCH":48853,"BSTAR":0.00029602854,"MEAN_MOTION_DOT":0.00023423,"MEAN_MOTION_DDOT":0},{"OBJECT_NAME":"SKYSAT-C10","OBJECT_ID":"2017-068B","EPOCH":"2026-07-21T07:44:19.953024","CLASSIFICATION_TYPE":"U","MEAN_MOTION":15.35195077,"ECCENTRICITY":0.00015449,"INCLINATION":97.4542,"RA_OF_ASC_NODE":339.5238,"ARG_OF_PERICENTER":110.0496,"MEAN_ANOMALY":250.0914,"EPHEMERIS_TYPE":0,"NORAD_CAT_ID":42988,"ELEMENT_SET_NO":999,"REV_AT_EPOCH":48759,"BSTAR":0.00024282282,"MEAN_MOTION_DOT":0.00008215,"MEAN_MOTION_DDOT":0},{"OBJECT_NAME":"SKYSAT-C9","OBJECT_ID":"2017-068C","EPOCH":"2026-07-21T15:11:25.705824","CLASSIFICATION_TYPE":"U","MEAN_MOTION":15.42318183,"ECCENTRICITY":0.00080864,"INCLINATION":97.4464,"RA_OF_ASC_NODE":341.1075,"ARG_OF_PERICENTER":23.0912,"MEAN_ANOMALY":337.0697,"EPHEMERIS_TYPE":0,"NORAD_CAT_ID":42989,"ELEMENT_SET_NO":999,"REV_AT_EPOCH":48806,"BSTAR":0.00027821609,"MEAN_MOTION_DOT":0.00011914,"MEAN_MOTION_DDOT":0},{"OBJECT_NAME":"SKYSAT-C8","OBJECT_ID":"2017-068D","EPOCH":"2026-07-21T08:54:53.930592","CLASSIFICATION_TYPE":"U","MEAN_MOTION":15.37570842,"ECCENTRICITY":0.00013118,"INCLINATION":97.456,"RA_OF_ASC_NODE":339.5052,"ARG_OF_PERICENTER":106.9066,"MEAN_ANOMALY":253.2323,"EPHEMERIS_TYPE":0,"NORAD_CAT_ID":42990,"ELEMENT_SET_NO":999,"REV_AT_EPOCH":48756,"BSTAR":0.00024920034,"MEAN_MOTION_DOT":0.00009104,"MEAN_MOTION_DDOT":0},{"OBJECT_NAME":"SKYSAT-C7","OBJECT_ID":"2017-068E","EPOCH":"2026-07-21T15:02:06.633024","CLASSIFICATION_TYPE":"U","MEAN_MOTION":15.37524312,"ECCENTRICITY":0.00051066,"INCLINATION":97.4571,"RA_OF_ASC_NODE":340.756,"ARG_OF_PERICENTER":358.46,"MEAN_ANOMALY":1.6628,"EPHEMERIS_TYPE":0,"NORAD_CAT_ID":42991,"ELEMENT_SET_NO":999,"REV_AT_EPOCH":48766,"BSTAR":0.00025555256,"MEAN_MOTION_DOT":0.00009328,"MEAN_MOTION_DDOT":0},{"OBJECT_NAME":"SKYSAT-C6","OBJECT_ID":"2017-068F","EPOCH":"2026-07-21T07:46:29.333568","CLASSIFICATION_TYPE":"U","MEAN_MOTION":15.34235666,"ECCENTRICITY":0.00049096,"INCLINATION":97.461,"RA_OF_ASC_NODE":340.2748,"ARG_OF_PERICENTER":73.525,"MEAN_ANOMALY":286.6532,"EPHEMERIS_TYPE":0,"NORAD_CAT_ID":42992,"ELEMENT_SET_NO":999,"REV_AT_EPOCH":48755,"BSTAR":0.00020971918,"MEAN_MOTION_DOT":0.00006871,"MEAN_MOTION_DDOT":0},{"OBJECT_NAME":"SKYSAT-C12","OBJECT_ID":"2018-099AR","EPOCH":"2026-07-21T12:24:06.469920","CLASSIFICATION_TYPE":"U","MEAN_MOTION":15.49931463,"ECCENTRICITY":0.0004809,"INCLINATION":96.9258,"RA_OF_ASC_NODE":224.3956,"ARG_OF_PERICENTER":56.3795,"MEAN_ANOMALY":303.7916,"EPHEMERIS_TYPE":0,"NORAD_CAT_ID":43797,"ELEMENT_SET_NO":999,"REV_AT_EPOCH":42717,"BSTAR":0.00029735579,"MEAN_MOTION_DOT":0.00016555,"MEAN_MOTION_DDOT":0}]}
